ONEWEB-0228             
1 48780U 21045P   23350.78035541  .00000141  00000+0  33987-3 0  9993
2 48780  87.9000  81.0177 0001621 108.9106 251.2201 13.15540457124232
